{
  "type": "FeatureCollection",
  "features": [
    {
      "type": "Feature",
      "properties": {
        "norad_id": 33605,
        "name": "FENGYUN 1C DEB",
        "group": "fengyun-1c-debris",
        "lat": -80.20150362094124,
        "lon": 101.64669036851583,
        "alt_km": 915.6132237433903,
        "timestamp": "2025-12-10T23:33:13.103352+00:00",
        "meta_object_name": "FENGYUN 1C DEB",
        "meta_object_id": "1999-025DCN",
        "meta_epoch": "2025-12-10T07:01:31.719072",
        "meta_mean_motion": 14.0776111,
        "meta_eccentricity": 0.0057186,
        "meta_inclination": 98.6977,
        "meta_ra_of_asc_node": 343.4026,
        "meta_arg_of_pericenter": 81.9564,
        "meta_mean_anomaly": 295.3635,
        "meta_ephemeris_type": 0,
        "meta_classification_type": "U",
        "meta_norad_cat_id": 33605,
        "meta_element_set_no": 999,
        "meta_rev_at_epoch": 59784,
        "meta_bstar": 0.00085517,
        "meta_mean_motion_dot": 1.428e-05,
        "meta_mean_motion_ddot": 0,
        "tle_line1": "1 33605U 99025DCN 25344.29272823  .00001428  00000+0  85517-3 0  9998",
        "tle_line2": "2 33605  98.6977 343.4026 0057186  81.9564 295.3635 14.07761110597841"
      },
      "geometry": {
        "type": "Point",
        "coordinates": [
          101.64669036851583,
          -80.20150362094124
        ]
      }
    },
    {
      "type": "Feature",
      "properties": {
        "norad_id": 33612,
        "name": "FENGYUN 1C DEB",
        "group": "fengyun-1c-debris",
        "lat": -71.76393565723518,
        "lon": 106.95419401814232,
        "alt_km": 949.4633679359977,
        "timestamp": "2025-12-10T23:33:13.103361+00:00",
        "meta_object_name": "FENGYUN 1C DEB",
        "meta_object_id": "1999-025DCV",
        "meta_epoch": "2025-12-10T08:40:31.741536",
        "meta_mean_motion": 14.04055217,
        "meta_eccentricity": 0.01118243,
        "meta_inclination": 98.5982,
        "meta_ra_of_asc_node": 313.7031,
        "meta_arg_of_pericenter": 114.8987,
        "meta_mean_anomaly": 246.3853,
        "meta_ephemeris_type": 0,
        "meta_classification_type": "U",
        "meta_norad_cat_id": 33612,
        "meta_element_set_no": 999,
        "meta_rev_at_epoch": 56640,
        "meta_bstar": 0.0023046449,
        "meta_mean_motion_dot": 3.817e-05,
        "meta_mean_motion_ddot": 0,
        "tle_line1": "1 33612U 99025DCV 25344.36147849  .00003817  00000+0  23046-2 0  9995",
        "tle_line2": "2 33612  98.5982 313.7031 0111824 114.8987 246.3853 14.04055217566402"
      },
      "geometry": {
        "type": "Point",
        "coordinates": [
          106.95419401814232,
          -71.76393565723518
        ]
      }
    },
    {
      "type": "Feature",
      "properties": {
        "norad_id": 33613,
        "name": "FENGYUN 1C DEB",
        "group": "fengyun-1c-debris",
        "lat": -32.10811331006993,
        "lon": -128.8267047493289,
        "alt_km": 797.8132574556412,
        "timestamp": "2025-12-10T23:33:13.103370+00:00",
        "meta_object_name": "FENGYUN 1C DEB",
        "meta_object_id": "1999-025DCW",
        "meta_epoch": "2025-12-07T22:31:03.844416",
        "meta_mean_motion": 14.3311819,
        "meta_eccentricity": 0.00307976,
        "meta_inclination": 98.6971,
        "meta_ra_of_asc_node": 53.6298,
        "meta_arg_of_pericenter": 102.5021,
        "meta_mean_anomaly": 257.9611,
        "meta_ephemeris_type": 0,
        "meta_classification_type": "U",
        "meta_norad_cat_id": 33613,
        "meta_element_set_no": 999,
        "meta_rev_at_epoch": 64441,
        "meta_bstar": 0.0026839332,
        "meta_mean_motion_dot": 7.364e-05,
        "meta_mean_motion_ddot": 0,
        "tle_line1": "1 33613U 99025DCW 25341.93823894  .00007364  00000+0  26839-2 0  9991",
        "tle_line2": "2 33613  98.6971  53.6298 0030797 102.5021 257.9611 14.33118190644419"
      },
      "geometry": {
        "type": "Point",
        "coordinates": [
          -128.8267047493289,
          -32.10811331006993
        ]
      }
    },
    {
      "type": "Feature",
      "properties": {
        "norad_id": 33618,
        "name": "FENGYUN 1C DEB",
        "group": "fengyun-1c-debris",
        "lat": -78.10387021325586,
        "lon": 117.69483169806286,
        "alt_km": 771.5219330910168,
        "timestamp": "2025-12-10T23:33:13.103379+00:00",
        "meta_object_name": "FENGYUN 1C DEB",
        "meta_object_id": "1999-025DDB",
        "meta_epoch": "2025-12-10T12:26:26.658240",
        "meta_mean_motion": 14.62085252,
        "meta_eccentricity": 0.01651698,
        "meta_inclination": 98.5301,
        "meta_ra_of_asc_node": 71.7818,
        "meta_arg_of_pericenter": 147.273,
        "meta_mean_anomaly": 213.8834,
        "meta_ephemeris_type": 0,
        "meta_classification_type": "U",
        "meta_norad_cat_id": 33618,
        "meta_element_set_no": 999,
        "meta_rev_at_epoch": 96751,
        "meta_bstar": 0.0015131864,
        "meta_mean_motion_dot": 9.196e-05,
        "meta_mean_motion_ddot": 0,
        "tle_line1": "1 33618U 99025DDB 25344.51836410  .00009196  00000+0  15132-2 0  9990",
        "tle_line2": "2 33618  98.5301  71.7818 0165169 147.2730 213.8834 14.62085252967515"
      },
      "geometry": {
        "type": "Point",
        "coordinates": [
          117.69483169806286,
          -78.10387021325586
        ]
      }
    },
    {
      "type": "Feature",
      "properties": {
        "norad_id": 33619,
        "name": "FENGYUN 1C DEB",
        "group": "fengyun-1c-debris",
        "lat": 74.5783528947241,
        "lon": 19.944828289247198,
        "alt_km": 793.5393444473975,
        "timestamp": "2025-12-10T23:33:13.103388+00:00",
        "meta_object_name": "FENGYUN 1C DEB",
        "meta_object_id": "1999-025DDC",
        "meta_epoch": "2025-12-10T11:20:06.017568",
        "meta_mean_motion": 14.17489179,
        "meta_eccentricity": 0.00510783,
        "meta_inclination": 98.8615,
        "meta_ra_of_asc_node": 53.8773,
        "meta_arg_of_pericenter": 52.8594,
        "meta_mean_anomaly": 307.723,
        "meta_ephemeris_type": 0,
        "meta_classification_type": "U",
        "meta_norad_cat_id": 33619,
        "meta_element_set_no": 999,
        "meta_rev_at_epoch": 63592,
        "meta_bstar": 0.0019317895,
        "meta_mean_motion_dot": 3.926e-05,
        "meta_mean_motion_ddot": 0,
        "tle_line1": "1 33619U 99025DDC 25344.47229187  .00003926  00000+0  19318-2 0  9998",
        "tle_line2": "2 33619  98.8615  53.8773 0051078  52.8594 307.7230 14.17489179635926"
      },
      "geometry": {
        "type": "Point",
        "coordinates": [
          19.944828289247198,
          74.5783528947241
        ]
      }
    },
    {
      "type": "Feature",
      "properties": {
        "norad_id": 33621,
        "name": "FENGYUN 1C DEB",
        "group": "fengyun-1c-debris",
        "lat": -25.619830798641733,
        "lon": -160.1849491059789,
        "alt_km": 661.9196518770386,
        "timestamp": "2025-12-10T23:33:13.103397+00:00",
        "meta_object_name": "FENGYUN 1C DEB",
        "meta_object_id": "1999-025DDE",
        "meta_epoch": "2025-12-09T20:36:12.899232",
        "meta_mean_motion": 14.19479332,
        "meta_eccentricity": 0.02848034,
        "meta_inclination": 98.1398,
        "meta_ra_of_asc_node": 194.8456,
        "meta_arg_of_pericenter": 302.8957,
        "meta_mean_anomaly": 54.511,
        "meta_ephemeris_type": 0,
        "meta_classification_type": "U",
        "meta_norad_cat_id": 33621,
        "meta_element_set_no": 999,
        "meta_rev_at_epoch": 64203,
        "meta_bstar": 0.0011496429,
        "meta_mean_motion_dot": 3.588e-05,
        "meta_mean_motion_ddot": 0,
        "tle_line1": "1 33621U 99025DDE 25343.85848263  .00003588  00000+0  11496-2 0  9997",
        "tle_line2": "2 33621  98.1398 194.8456 0284803 302.8957  54.5110 14.19479332642035"
      },
      "geometry": {
        "type": "Point",
        "coordinates": [
          -160.1849491059789,
          -25.619830798641733
        ]
      }
    },
    {
      "type": "Feature",
      "properties": {
        "norad_id": 33625,
        "name": "FENGYUN 1C DEB",
        "group": "fengyun-1c-debris",
        "lat": -49.5756677354299,
        "lon": 105.81767501174032,
        "alt_km": 854.3974991461591,
        "timestamp": "2025-12-10T23:33:13.103406+00:00",
        "meta_object_name": "FENGYUN 1C DEB",
        "meta_object_id": "1999-025DDJ",
        "meta_epoch": "2025-12-01T01:24:31.444992",
        "meta_mean_motion": 14.60592393,
        "meta_eccentricity": 0.02269611,
        "meta_inclination": 98.6203,
        "meta_ra_of_asc_node": 85.2252,
        "meta_arg_of_pericenter": 171.2387,
        "meta_mean_anomaly": 189.288,
        "meta_ephemeris_type": 0,
        "meta_classification_type": "U",
        "meta_norad_cat_id": 33625,
        "meta_element_set_no": 999,
        "meta_rev_at_epoch": 61220,
        "meta_bstar": 0.0017865562,
        "meta_mean_motion_dot": 0.00012473,
        "meta_mean_motion_ddot": 0,
        "tle_line1": "1 33625U 99025DDJ 25335.05869728  .00012473  00000+0  17866-2 0  9993",
        "tle_line2": "2 33625  98.6203  85.2252 0226961 171.2387 189.2880 14.60592393612207"
      },
      "geometry": {
        "type": "Point",
        "coordinates": [
          105.81767501174032,
          -49.5756677354299
        ]
      }
    }
  ]
}